{
  "norad_id": 60556,
  "name": "KANYINI",
  "history": [
    {
      "epoch": "2026-03-28T18:20:46.525632Z",
      "apogee_km": 427.2589797895307,
      "perigee_km": 423.43868642452344,
      "latitude_deg": 3.0372401961068732e-05,
      "longitude_deg": 71.43644940997076,
      "height_km": 430.231755403341,
      "semi_major_axis_km": 6803.485833107026,
      "eccentricity": 0.00028076,
      "inclination_deg": 97.3754,
      "raan_deg": 172.8105,
      "arg_perigee_deg": 156.8575,
      "mean_anomaly_deg": 203.2802,
      "mean_motion_rev_day": 15.4705422
    },
    {
      "epoch": "2026-03-29T05:12:45.163296Z",
      "apogee_km": 427.10322894837464,
      "perigee_km": 423.3028831930533,
      "latitude_deg": -1.1518099695288082e-05,
      "longitude_deg": -91.5430313800735,
      "height_km": 430.06367552829454,
      "semi_major_axis_km": 6803.340056070713,
      "eccentricity": 0.0002793,
      "inclination_deg": 97.3754,
      "raan_deg": 173.2716,
      "arg_perigee_deg": 155.8695,
      "mean_anomaly_deg": 204.2686,
      "mean_motion_rev_day": 15.47103944
    },
    {
      "epoch": "2026-03-30T04:29:47.039136Z",
      "apogee_km": 426.8259367497476,
      "perigee_km": 423.05023007845284,
      "latitude_deg": -9.939006655229508e-06,
      "longitude_deg": -80.76858089095458,
      "height_km": 429.7631257888148,
      "semi_major_axis_km": 6803.0750834141,
      "eccentricity": 0.0002775,
      "inclination_deg": 97.3755,
      "raan_deg": 174.2601,
      "arg_perigee_deg": 154.1224,
      "mean_anomaly_deg": 206.0165,
      "mean_motion_rev_day": 15.47194332
    },
    {
      "epoch": "2026-03-30T18:27:57.763584Z",
      "apogee_km": 426.6028449703881,
      "perigee_km": 422.9341740872096,
      "latitude_deg": 2.62561856921157e-05,
      "longitude_deg": 69.70611696044894,
      "height_km": 429.5320522842662,
      "semi_major_axis_km": 6802.905509528799,
      "eccentricity": 0.00026964,
      "inclination_deg": 97.3757,
      "raan_deg": 174.8532,
      "arg_perigee_deg": 153.1799,
      "mean_anomaly_deg": 206.9591,
      "mean_motion_rev_day": 15.47252182
    },
    {
      "epoch": "2026-03-31T11:32:21.783552Z",
      "apogee_km": 426.49231398140455,
      "perigee_km": 422.69135727178764,
      "latitude_deg": 1.828783352081441e-05,
      "longitude_deg": 173.62995861507767,
      "height_km": 429.4021437849007,
      "semi_major_axis_km": 6802.728835626596,
      "eccentricity": 0.00027937,
      "inclination_deg": 97.3758,
      "raan_deg": 175.5783,
      "arg_perigee_deg": 152.3744,
      "mean_anomaly_deg": 207.7655,
      "mean_motion_rev_day": 15.47312458
    },
    {
      "epoch": "2026-04-01T04:36:43.445664Z",
      "apogee_km": 426.3051285143538,
      "perigee_km": 422.5460324323849,
      "latitude_deg": 1.8025894056609953e-05,
      "longitude_deg": -82.43654939963332,
      "height_km": 429.2027556556455,
      "semi_major_axis_km": 6802.562580473369,
      "eccentricity": 0.0002763,
      "inclination_deg": 97.3757,
      "raan_deg": 176.3032,
      "arg_perigee_deg": 151.4283,
      "mean_anomaly_deg": 208.7119,
      "mean_motion_rev_day": 15.47369183
    },
    {
      "epoch": "2026-04-02T11:39:05.626656Z",
      "apogee_km": 425.9486713423694,
      "perigee_km": 422.1617548934819,
      "latitude_deg": 6.062685394186594e-05,
      "longitude_deg": 172.01447889955256,
      "height_km": 428.7914315770456,
      "semi_major_axis_km": 6802.192213117925,
      "eccentricity": 0.00027836,
      "inclination_deg": 97.3757,
      "raan_deg": 177.6214,
      "arg_perigee_deg": 148.2315,
      "mean_anomaly_deg": 211.9104,
      "mean_motion_rev_day": 15.47495562
    },
    {
      "epoch": "2026-04-03T18:41:17.024928Z",
      "apogee_km": 425.4594442192847,
      "perigee_km": 421.7171349649507,
      "latitude_deg": -3.076063718864272e-05,
      "longitude_deg": 66.51067442044328,
      "height_km": 428.2559238973611,
      "semi_major_axis_km": 6801.725289592117,
      "eccentricity": 0.0002751,
      "inclination_deg": 97.3752,
      "raan_deg": 178.9397,
      "arg_perigee_deg": 145.4495,
      "mean_anomaly_deg": 214.6934,
      "mean_motion_rev_day": 15.47654913
    },
    {
      "epoch": "2026-04-04T11:45:24.278112Z",
      "apogee_km": 425.24787702996673,
      "perigee_km": 421.42164107719236,
      "latitude_deg": -4.572491073588467e-05,
      "longitude_deg": 170.5047684258431,
      "height_km": 428.00712843059154,
      "semi_major_axis_km": 6801.471759053579,
      "eccentricity": 0.00028128,
      "inclination_deg": 97.3749,
      "raan_deg": 179.665,
      "arg_perigee_deg": 143.9063,
      "mean_anomaly_deg": 216.2377,
      "mean_motion_rev_day": 15.47741449
    }
  ]
}